CIC_OEM_VERS = 2.0
CREATION_DATE = 2025-03-17T14:46:42.924590
ORIGINATOR = ISAE-SUPAERO


META_START
OBJECT_NAME = PLEIADES-NEO3
OBJECT_ID = PLEIADES-NEO3
CENTER_NAME = Earth
REF_FRAME = EME2000
TIME_SYSTEM = UTC
START_TIME = 2025-03-17T01:24:00.514
USEABLE_START_TIME = 2025-03-17T01:24:00.514
USEABLE_STOP_TIME = 2025-03-17T23:55:00.514
STOP_TIME = 2025-03-17T23:55:00.514
INTERPOLATION = lagrange
INTERPOLATION_DEGREE = 5
META_STOP



60751 5040.514 -6203.5155 3247.8714 14.681679 0.49515525000000005 0.9103844600000001 7.4732009
60751 5460.514 -5374.831700000001 3288.7268 3046.1223999999997 3.3719404 -0.71331322 6.713572600000001
60751 5880.514 -3464.2758 2667.5322 5462.5117 5.5665445 -2.1920742 4.5964073
60751 6300.514 -856.85778 1509.6718 6776.9958 6.6369878 -3.2269051 1.5565593
60751 6720.514 1922.7895 48.416504 6726.2300000000005 6.3731817 -3.6124958 -1.7941295000000002
60751 7140.514 4315.9532 -1422.5013999999999 5320.356900000001 4.8275845 -3.272011 -4.7864331
60751 7560.514 5840.5311 -2607.1336 2840.9083 2.3059075 -2.2714167 -6.8178285
60751 7980.514 6187.0082 -3265.8119 -212.79252 -0.6847975000000001 -0.8110247700000001 -7.4730611
60751 8400.514 5284.612099999999 -3265.1989 -3223.0895 -3.5371745000000003 0.8128729100000001 -6.6168507000000005
60751 8820.514 3316.0713 -2605.9673 -5582.2926 -5.6726829 2.2704701000000003 -4.425785
60751 9240.514 680.4586 -1422.5009 -6815.444 -6.6628276 3.2683648 -1.3465148
60751 9660.514 -2091.9666 46.815687 -6675.511 -6.313515000000001 3.6087793 2.0014291
60751 10080.514 -4443.875400000001 1506.6459 -5190.5537 -4.6941185999999995 3.2238158 4.9492393
60751 10500.514 -5901.3188 2663.2187999999996 -2658.0905000000002 -2.1254463 2.1884154 6.9029672
60751 10920.514 -6168.420400000001 3282.5660000000003 411.66003000000006 0.87559193 0.71007081 7.4629979
60751 11340.514 -5190.2706 3239.1712 3397.5123 3.6991937 -0.91091904 6.5146322
60751 11760.514 -3164.7871 2542.4241 5697.6811 5.7741664 -2.3464536 4.251781
60751 12180.514 -503.21451 1334.5052 6848.6313 6.6828582 -3.3068380000000004 1.1358316
60751 12600.514 2259.5351 -141.59121 6619.9397 6.2482356 -3.6020375 -2.206127
60751 13020.514 4568.1642999999995 -1589.1648 5057.6368 4.5568713 -3.1731957000000004 -5.106535
60751 13440.514 5957.4442 -2716.8597999999997 2474.9722 1.9442102 -2.1042327 -6.981099400000001
60751 13860.514 6145.165 -3296.5454 -608.15464 -1.0643293 -0.6093275300000001 -7.4468364000000005
60751 14280.514 5093.761 -3211.4306 -3568.0847000000003 -3.8568059 1.0077289 -6.406325700000001
60751 14700.514 3015.6518 -2479.0948 -5807.4335 -5.8682831 2.4190893 -4.0750432000000005
60751 15120.514 331.04242 -1248.2373 -6876.0261 -6.6968271999999995 3.3417321 -0.92691502
60751 15540.514 -2420.0884 233.32828 -6559.8871 -6.1798437999999996 3.5927869 2.4068403
60751 15960.514 -4684.6483 1667.8858 -4921.8779 -4.4188086 3.1214560000000002 5.260256500000001
60751 16380.514 -6005.1253 2766.3459 -2289.11 -1.7623592000000001 2.0196094 7.057826100000001
60751 16800.514 -6113.7611 3306.4397000000004 806.1824399999999 1.25421 0.50796137 7.4279146
60751 17220.514 -4988.4328 3179.2755 3739.0067000000004 4.0138741 -1.1043193000000002 6.2943176
60751 17640.514 -2855.2551000000003 2409.7985 5914.5602 5.9626435 -2.4923772 3.8927970000000003
60751 18060.514 -148.37132 1156.0643 6898.1586 6.7065772 -3.3754173 0.7115825
60751 18480.514 2588.3795 -329.92721 6492.4575 6.1028686 -3.5798095 -2.6103933
60751 18900.514 4804.9929 -1749.5648999999999 4779.0241 4.2715303 -3.0646714999999998 -5.4096318000000005
60751 19320.514 6054.6383 -2817.0801 2101.5605 1.5762698000000002 -1.9312344000000001 -7.1217103
60751 19740.514 6082.476000000001 -3315.7551000000003 -998.79278 -1.4375046 -0.40872250000000004 -7.3984554
60751 20160.514 4884.878900000001 -3146.6888 -3899.1704 -4.1610816 1.1957262000000002 -6.1812144
60751 20580.514 2698.7509 -2341.1809 -6010.531 -6.050640400000001 2.5615268 -3.7152907
60751 21000.514 -28.403084 -1065.999 -6911.5711 -6.7129048000000004 3.4063562000000003 -0.50270629
60751 21420.514 -2749.8971 423.55209 -6419.1125999999995 -6.025016 3.5654196000000002 2.8072318000000003
60751 21840.514 -4918.5785000000005 1827.9134 -4632.9723 -4.1251514 3.0075719 5.5527454
60751 22260.514 -6097.563700000001 2864.4393999999998 -1912.2925 -1.3924282000000001 1.8435355 7.1807245
60751 22680.514 -6048.4139000000005 3324.029 1194.5904 1.6220436 0.30765213999999996 7.3594412
60751 23100.514 -4780.153200000001 3113.7327999999998 4060.7248 4.307671999999999 -1.2887613 6.0540764000000005
60751 23520.514 -2551.5719 2277.8062999999997 6108.362 6.1225906000000005 -2.6233231999999997 3.5303690000000003
60751 23940.514 189.32458 984.6039000000001 6926.715700000001 6.7064373999999995 -3.4295889 0.30018795
60751 24360.514 2892.1818 -506.1027 6351.7983 5.9443285 -3.5478265 -2.9918371
60751 24780.514 5013.6994 -1894.9974 4497.452 3.9843897000000004 -2.9525392999999998 -5.6882209
60751 25200.514 6128.6822 -2903.4481 1738.0377 1.2204981000000001 -1.761673 -7.2349291000000004
60751 25620.514 6005.3966 -3325.2293 -1373.0221000000001 -1.7947012 -0.21407807 -7.3266383
60751 26040.514 4670.6591 -3076.4214 -4207.5953 -4.4464105 1.3757272 -5.9381976000000005
60751 26460.514 2396.207 -2208.5522 -6192.7529 -6.1981155 2.6856806000000004 -3.3536364
60751 26880.514 -359.90522999999996 -896.80446 -6930.240900000001 -6.701888 3.4538595 -0.098640212
60751 27300.514 -3043.7525 594.9555 -6272.8239 -5.8599027 3.5284218000000003 3.1760318
60751 27720.514 -5115.822700000001 1967.0489 -4351.7298 -3.8376527 2.8933991000000003 5.8160591
60751 28140.514 -6157.1585000000005 2942.8895 -1551.1038 -1.0368242 1.6735958000000002 7.2872354999999995
60751 28560.514 -5956.3731 3324.9375 1562.5373000000002 1.9769456 0.11421982 7.2842841
60751 28980.514 -4553.4436 3035.9175 4359.7908 4.589322600000001 -1.4668112000000002 5.8082728
60751 29400.514 -2232.3686000000002 2134.8751 6276.4146 6.272832500000001 -2.7495116 3.1631049
60751 29820.514 537.75376 804.44609 6927.4938 6.6925358 -3.4773925 -0.11536154000000001
60751 30240.514 3199.7857000000004 -687.64765 6182.745400000001 5.7669208 -3.5063169 -3.3706278000000003
60751 30660.514 5218.0812000000005 -2041.3681000000001 4191.2329 3.6787022 -2.829335 -5.9507698
60751 31080.514 6184.5298 -2983.6101000000003 1352.6663999999998 0.8444185700000001 -1.5803533 -7.3326329
60751 31500.514 5903.000900000001 -3323.7617000000005 -1759.3151 -2.1621124 -0.011554251000000001 -7.2312044
60751 31920.514 4426.7399000000005 -2991.0721000000003 -4513.3820000000005 -4.7314128 1.5581249000000001 -5.6731258
60751 32340.514 2056.2678 -2054.4604 -6355.161 -6.3503017 2.8167388 -2.9602855
60751 32760.514 -727.57618 -704.59564 -6914.4337000000005 -6.6799609 3.501673 0.34355032999999996
60751 33180.514 -3364.9328 787.31574 -6076.6461 -5.6638231999999995 3.4810649 3.5777571
60751 33600.514 -5323.967900000001 2120.4975 -4010.7073 -3.5045174 2.7584133000000004 6.091337800000001
60751 34020.514 -6208.756 3025.8143 -1133.4233000000002 -0.6363615600000001 1.4785788 7.374191300000001
60751 34440.514 -5840.735 3320.6161 1973.3416000000002 2.3580333 -0.098519489 7.1650835
60751 34860.514 -4296.1156 2946.527 4681.7543 4.8708214 -1.6520308000000001 5.5110282
60751 35280.514 -1888.176 1980.3943000000002 6447.3378 6.3991153999999995 -2.8694976000000003 2.7539232
60751 35700.514 898.21202 617.40637 6917.7915 6.6433274 -3.5102981 -0.5516457
60751 36120.514 3504.6238 -869.19872 5999.1806 5.5561967 -3.4480677 -3.7490039000000004
60751 36540.514 5407.5176 -2181.2434 3873.7401 3.349131 -2.6925790000000003 -6.2001132
60751 36960.514 6220.745 -3053.6609 966.26922 0.45933379 -1.3917486 -7.4068241
60751 37380.514 5778.4436 -3309.7599 -2136.6877999999997 -2.5298219 0.19347871 -7.114332500000001
60751 37800.514 4167.921600000001 -2896.7351000000003 -4806.5985 -5.0071251000000006 1.7393136999999999 -5.3803345
60751 38220.514 1715.5537 -1898.6345000000001 -6503.2187 -6.4701898 2.9317721000000003 -2.5603993000000003
60751 38640.514 -1082.6951999999999 -517.68791 -6884.9034 -6.6275053 3.5317988999999996 0.77272007
60751 39060.514 -3663.0511 967.64532 -5876.0246 -5.4493461 3.4200599000000005 3.9492298999999997
60751 39480.514 -5505.0425000000005 2257.9101 -3679.6806 -3.1712296 2.6185565000000004 6.330104599999999
60751 39900.514 -6236.4441 3092.6644 -739.06247 -0.25186274000000003 1.2882396 7.4318144
60751 40320.514 -5709.8113 3303.5946000000004 2351.1877000000004 2.7155329999999998 -0.30048618 7.0305374
60751 40740.514 -4033.0881000000004 2849.1895 4967.0744 5.1296428 -1.8248775000000002 5.2130438
60751 41160.514 -1546.5989 1822.7544 6583.188 6.508153900000001 -2.979018 2.3523094
60751 41580.514 1249.8399 431.10510999999997 6877.0532 6.5813629 -3.5349706000000003 -0.97672937
60751 42000.514 3795.829 -1046.8477 5789.8567 5.335176499999999 -3.3828269 -4.1130764
60751 42420.514 5579.6053 -2314.5133 3537.5492000000004 3.0124292 -2.5499812000000004 -6.4296704
60751 42840.514 6239.2264000000005 -3115.7463 571.35297 0.07477499500000001 -1.2002218 -7.453695700000001
60751 43260.514 5639.146900000001 -3287.9168 -2510.6177000000002 -2.8835779 0.39468102 -6.969280800000001
60751 43680.514 3899.3614 -2795.5795000000003 -5083.9227 -5.258341000000001 1.9092856 -5.0734112
60751 44100.514 1372.3525 -1738.8582 -6628.232400000001 -6.5687049 3.0364116 -2.1541739
60751 44520.514 -1431.2855 -331.58977000000004 -6832.723 -6.5541151 3.5504241000000003 1.1965358000000001
60751 44940.514 -3946.7110000000002 1142.5526000000002 -5657.087 -5.2187611 3.3490406 4.3060414
60751 45360.514 -5666.4008 2386.3122000000003 -3337.9535 -2.8293292 2.4718627 6.5479119
60751 45780.514 -6242.6350999999995 3148.5104 -343.45794 0.13239099 1.0953772 7.4660602
60751 46200.514 -5559.3617 3275.4923 2720.6571000000004 3.0640495999999997 -0.5002919800000001 6.8743101
60751 46620.514 -3756.1416000000004 2742.7225 5235.8784000000005 5.372263 -1.9913266 4.898547
60751 47040.514 -1198.9888999999998 1659.4205 6697.3647 6.5963989000000005 -3.0787934 1.9430931
